#dP2024  1  1  0  0  0.00000000      96 __u+U IGS20 FIT  IAC
## 2295  86400.00000000   900.00000000 60310 0.0000000000000
+  119   C06C07C08C09C10C11C12C13C14C16C19C20C21C22C23C24C25
+        C26C27C28C29C30C32C33C34C35C36C37C38C39C40C41C42C43
+        C44C45C46E02E03E04E05E07E08E09E10E11E12E13E14E15E18
+        E19E21E24E25E26E27E30E31E33E34E36G01G02G03G04G05G06
+        G07G08G09G10G11G12G13G14G15G16G17G18G19G20G21G22G23
+        G24G25G26G28G29G30G31G32J02J03J04R01R02R03R04R05R07
+        R08R09R11R12R13R14R15R16R17R18R19R20R21R22R24R25R26
++         8  8  9  8  7  8  6  9  7  8  8  7  7  8  6  6  6
++         6  7  6  8  8  7  6  6  7  7  7  8  7  6  7  8  6
++         7  7  7  5  5  5  5  6  6  5  6  7  7  6  6  5  5
++         6  6  5  6  6  6  5  5  5  6  6  6  6  5  5  5  5
++         5  6  5  5  5  5  5  5  5  6  6  7  5  4  5  6  6
++         4  5  6  6  8  6  5  5  8  0  8  7  6  7  6  6  7
++         8  6  7  6  7  5  6  6  6  3  8  8  7  5  6  4  8
%c M  cc GPS ccc cccc cccc cccc cccc ccccc ccccc ccccc ccccc
%c cc cc ccc ccc cccc cccc cccc cccc ccccc ccccc ccccc ccccc
%f  0.0000000  0.000000000  0.00000000000  0.000000000000000
%f  0.0000000  0.000000000  0.00000000000  0.000000000000000
%i    0    0    0    0      0      0      0      0         0
%i    0    0    0    0      0      0      0      0         0
/* INFORMATION & ANALYSIS CENTER (IAC)      ULTRA-RAPID DATA
/* S/V CLOCKS ARE ALIGNED TO GNSS TIME                      
/* G:C1WC2W R:C1PC2P E:C1XC5X C:C2IC6I J:C1CC2S             
/* PCV:IGS20_2290 OL/AL:FES2004  NONE     YN ORB:CoN CLK:CoN
*  2024 01 01 12 15  0.00000000
PC06  -2896.926599  35112.983378 -22915.984020     23.578622
PC07 -10050.360569  26921.282864  30907.691315   -567.508572
PC08 -16785.909012  36717.080449 -12534.724588    142.481117
PC09   4748.612946  39276.037237 -13216.656025   -294.478698
PC10  -2511.251726  27616.385109  32059.501621    143.013453
PC11  -5860.831760  16019.704961  22163.393418    335.933758
PC12 -18951.336842  -1319.222538  20487.002313    809.043664
PC13 -11561.605605  36898.922891 -16983.627134    402.599226
PC14 -16348.463016  15029.469565 -16855.434955   -126.381659
PC16  -2864.053712  34558.070229 -23529.375949   -257.432496
PC19   6349.975179 -16298.189081  21770.875160   -943.742760
PC20  22743.776498 -12056.690096  10816.559627    -24.538489
PC21 -26801.558006     38.125276   7753.158642   -965.384746
PC22 -14636.620040 -11427.520485  20820.947336   -164.319187
PC23   6285.537482  20876.981473  17418.021779   -795.668905
PC24 -16670.859163  17276.439439 -14273.087953    748.187582
PC25  -6218.320629  27068.271512   2829.948317    291.605045
PC26 -16547.956284  -1277.035804 -22458.704038   -228.488963
PC27  21759.925167   9275.743966 -14812.191963    250.512023
PC28  18191.181921  21161.149293    198.684122    189.827801
PC29  -3111.218653 -21393.336890 -17649.622289    222.320376
PC30  14101.046467  -8201.332339 -22643.429586    -12.486093
PC32  26789.530532   -206.796818  -7813.872618   -548.684643
PC33  -6340.027066  16351.205962 -21701.806620   -942.064112
PC34 -13025.348947   9544.902900  22752.019127    337.618010
PC35 -18984.273505 -20481.517652   -202.323048    467.390177
PC36   7319.118199 -26834.122123  -2152.936599    -69.759335
PC37  16317.520457   2368.257624  22513.277244   -931.384434
PC38 -20614.390472  36658.991206  -3825.803449    127.732691
PC39  -6519.609942  30295.306277 -28434.891487     -6.414256
PC40 -16280.809464  20362.960321  33066.893442    -50.227471
PC41  13931.424637  11746.594145 -21084.324897   -876.619561
PC42 -23690.637524  11351.067588  -9341.972657   -471.871266
PC43   2152.596744  21085.214012  18134.975430     54.654981
PC44 -22207.884758  -8586.981465  14570.213772    340.529214
PC45  -6465.134763 -20525.469324 -17761.986109    -59.698186
PC46  16332.298757 -18108.150816  13515.011537   -112.131793
PE02   -904.829175  19853.920584  21934.630757     91.432828
PE03  10835.002505  19180.467463 -19780.810930    -84.061345
PE04 -26136.562415 -13329.945764   3938.951706   -293.496177
PE05 -10597.713324  13812.007794 -23940.291782   4706.111541
PE07  26184.944128     -6.295722  13808.766747    -96.102683
PE08  25881.244013  13629.407014  -4562.416841   -201.196661
PE09 -26201.589633   -142.900160 -13764.920127   -283.817201
PE10 -16392.548919  -7037.715392  23621.372640   -590.795404
PE11 -15377.021808   5358.076142  24716.115274   3279.264180
PE12 -14925.326834 -17069.431226  19042.013780   -843.868841
PE13  15449.339754  -4557.542903 -24822.715897    -19.800061
PE14  -1691.678479 -19676.708555 -20394.524644     -1.877618
PE15  14730.440283  17557.594501 -18715.561560    -77.815632
PE18  19772.911453  19136.523431  10406.193659    161.003688
PE19  -8325.172418 -19045.156780  21080.327979   -899.346109
PE21  18032.467221 -21785.495817  -8730.961824   -571.714736
PE24 -25551.610048  10629.727587 -10561.594122   -517.935127
PE25 -18323.698159  21696.725353   8368.926255     -1.140438
PE26   6847.594609 -24108.831157 -15736.672393    326.582958
PE27  25486.423445 -11079.482221  10165.097169   -238.517213
PE30  17622.333721   6369.640244  22894.846716   -789.044532
PE31 -17842.624293  -6015.574256 -22840.047511    -12.862826
PE33  -5048.121391 -29140.190824   1189.279065      5.213982
PE34   5447.238483  29046.471819  -1742.290809    -86.567717
PE36  -7141.151052  23630.932521  16336.875545   -165.762347
PG01 -13238.641849   7265.287536  21457.641505    165.032572
PG02 -15609.551977    -46.088058  22018.034012   -507.269882
PG03 -22623.656542  10144.402081   9221.585586     95.961425
PG04 -22447.837972   1087.609005 -14247.021231    254.773402
PG05  19415.673414   -321.585734 -18340.248281   -156.318196
PG06   6425.886561  25332.227086  -4342.141734    459.496933
PG07  -6650.055432  21249.336829 -13632.766487    -26.480361
PG08 -25638.178333  -4384.183323   6292.839294   -159.906644
PG09 -12943.614929  10752.688499 -20649.910045     44.941109
PG10   4044.977464 -18877.558646  18289.294198    -67.599581
PG11  11857.039732  19040.257259 -14236.948977   -523.451095
PG12  23338.566423  -8614.914535   8917.956780   -463.433684
PG13  22747.273850  13890.418556  -1400.260743    611.536918
PG14  -7956.318492  19987.219478  15481.640832    286.813691
PG15  25936.619547   1785.110560   5461.873816    112.793994
PG16 -15592.399868  -6976.869692 -20776.721253   -392.906912
PG17   1049.372591  16461.240534  21218.724783    720.866810
PG18   5966.351898 -22245.949017 -13048.353038   -521.260853
PG19  11032.314470  18085.215621  16047.078121    420.507689
PG20  10523.462816  11293.013118 -21563.433106    393.724422
PG21 -16369.733154  -5514.025181  20908.784629    139.786998
PG22  -1288.460966  17749.080716  20241.860421     55.812263
PG23  15014.349264 -20130.783490   8368.589512    126.914568
PG24  16094.094053   1058.920844  20747.210114   -405.317447
PG25  19741.792870 -17513.520428  -1313.595426    483.684221
PG26  -7915.408661 -14106.208006 -21167.231340    204.286030
PG28  -5813.089457 -25883.030702  -1369.849423    -86.018036
PG29  14595.388667  -8498.670975 -20570.011856   -609.225342
PG30    442.341613  25993.319640  -4573.882228   -450.681286
PG31 -10247.362058 -22083.351189 -10317.879962   -227.028104
PG32  -6108.602723 -17033.238360  19701.862861   -601.558331
PJ02 -30916.356045  28393.706485   9048.944450     -0.890066
PJ03      0.000000      0.000000      0.000000 999999.999999
PJ04 -31702.131231  22363.369193 -11298.250061     75.630378
PR01   1232.109867  10907.834111 -23024.897144     73.516963
PR02  18648.084197   7191.739775 -15760.390457    -22.357001
PR03  25457.349798   -737.691547    589.662668     92.007509
PR04  18150.331671  -7678.204879  16211.390436    217.747524
PR05   1091.076270 -10716.261440  23131.521477    124.724487
PR07 -25479.944986   1053.687912  -1328.702225     72.635136
PR08 -18004.218876   7910.737556 -16210.806227    -73.869104
PR09  -6649.967488 -10985.056380 -22039.192637    161.975799
PR11 -14621.892389  19334.153287  -7912.967547   -224.805451
PR12  -5880.146347  22120.671430  11295.935860     35.128871
PR13   4835.186533  12902.867468  21446.865812    -42.844768
PR14  14444.653640  -6303.990754  20066.581913     25.880009
PR15  14484.801375 -19963.821845   6521.086373     83.478206
PR16   6026.238161 -22212.446997 -11029.271172     22.097009
PR17  14325.226726   6039.779371 -20220.454088     48.548726
PR18   6023.184172  -9997.409366 -22665.701754    119.870587
PR19  -3567.105388 -20471.271865 -14786.014534   -260.436225
PR20 -13934.823506 -20648.173054   5607.055962   -106.082788
PR21 -14049.373208  -5660.977783  20523.094771    -65.503151
PR22  -6079.246745  10882.415138  22284.091494    101.071110
PR24  14971.633545  19743.881082  -6064.769857    -38.183210
PR25 -14261.607573  -6372.065680  20170.049136      9.645250
PR26 -18505.554302   7793.219936 -15699.929005 999999.999999
EOF
